{
  "type": "FeatureCollection",
  "features": [
    {
      "type": "Feature",
      "properties": {
        "norad_id": 66718,
        "name": "FLOCK 4H-15",
        "group": "last-30-days",
        "lat": 21.534002613260924,
        "lon": 65.3327058791687,
        "alt_km": 515.281835639611,
        "timestamp": "2025-12-22T16:55:16.166605+00:00",
        "meta_object_name": "FLOCK 4H-15",
        "meta_object_id": "2025-276BE",
        "meta_epoch": "2025-12-22T05:44:41.495424",
        "meta_mean_motion": 15.17095905,
        "meta_eccentricity": 0.00031255,
        "meta_inclination": 97.4423,
        "meta_ra_of_asc_node": 67.8321,
        "meta_arg_of_pericenter": 272.3137,
        "meta_mean_anomaly": 87.7738,
        "meta_ephemeris_type": 0,
        "meta_classification_type": "U",
        "meta_norad_cat_id": 66718,
        "meta_element_set_no": 999,
        "meta_rev_at_epoch": 356,
        "meta_bstar": 0.00049816347,
        "meta_mean_motion_dot": 9.811e-05,
        "meta_mean_motion_ddot": 0,
        "tle_line1": "1 66718U 25276BE  25356.23936916  .00009811  00000+0  49816-3 0  9999",
        "tle_line2": "2 66718  97.4423  67.8321 0003125 272.3137  87.7738 15.17095905  3568"
      },
      "geometry": {
        "type": "Point",
        "coordinates": [
          65.3327058791687,
          21.534002613260924
        ]
      }
    },
    {
      "type": "Feature",
      "properties": {
        "norad_id": 66719,
        "name": "FLOCK 4H-16",
        "group": "last-30-days",
        "lat": 30.57190837298371,
        "lon": 63.86859400727909,
        "alt_km": 514.3637133494631,
        "timestamp": "2025-12-22T16:55:16.166640+00:00",
        "meta_object_name": "FLOCK 4H-16",
        "meta_object_id": "2025-276BF",
        "meta_epoch": "2025-12-22T06:00:02.000160",
        "meta_mean_motion": 15.17220984,
        "meta_eccentricity": 0.0003281,
        "meta_inclination": 97.4436,
        "meta_ra_of_asc_node": 67.8512,
        "meta_arg_of_pericenter": 256.7324,
        "meta_mean_anomaly": 170.4512,
        "meta_ephemeris_type": 0,
        "meta_classification_type": "U",
        "meta_norad_cat_id": 66719,
        "meta_element_set_no": 999,
        "meta_rev_at_epoch": 299,
        "meta_bstar": -0.00078862799,
        "meta_mean_motion_dot": -0.00015703,
        "meta_mean_motion_ddot": 0,
        "tle_line1": "1 66719U 25276BF  25356.25002315 -.00015703  00000+0 -78863-3 0  9992",
        "tle_line2": "2 66719  97.4436  67.8512 0003281 256.7324 170.4512 15.17220984  2995"
      },
      "geometry": {
        "type": "Point",
        "coordinates": [
          63.86859400727909,
          30.57190837298371
        ]
      }
    },
    {
      "type": "Feature",
      "properties": {
        "norad_id": 66720,
        "name": "FLOCK 4H-17",
        "group": "last-30-days",
        "lat": 76.91704034442868,
        "lon": -77.43005101374199,
        "alt_km": 504.4825456479093,
        "timestamp": "2025-12-22T16:55:16.166650+00:00",
        "meta_object_name": "FLOCK 4H-17",
        "meta_object_id": "2025-276BG",
        "meta_epoch": "2025-12-22T05:24:17.759520",
        "meta_mean_motion": 15.18055825,
        "meta_eccentricity": 0.00027028,
        "meta_inclination": 97.4445,
        "meta_ra_of_asc_node": 67.8581,
        "meta_arg_of_pericenter": 193.2684,
        "meta_mean_anomaly": 166.8479,
        "meta_ephemeris_type": 0,
        "meta_classification_type": "U",
        "meta_norad_cat_id": 66720,
        "meta_element_set_no": 999,
        "meta_rev_at_epoch": 356,
        "meta_bstar": 0.00057727713,
        "meta_mean_motion_dot": 0.000117,
        "meta_mean_motion_ddot": 0,
        "tle_line1": "1 66720U 25276BG  25356.22520555  .00011700  00000+0  57728-3 0  9990",
        "tle_line2": "2 66720  97.4445  67.8581 0002702 193.2684 166.8479 15.18055825  3560"
      },
      "geometry": {
        "type": "Point",
        "coordinates": [
          -77.43005101374199,
          76.91704034442868
        ]
      }
    },
    {
      "type": "Feature",
      "properties": {
        "norad_id": 66721,
        "name": "FLOCK 4H-18",
        "group": "last-30-days",
        "lat": 24.449844554662338,
        "lon": 64.87103462741241,
        "alt_km": 514.235993923041,
        "timestamp": "2025-12-22T16:55:16.166663+00:00",
        "meta_object_name": "FLOCK 4H-18",
        "meta_object_id": "2025-276BH",
        "meta_epoch": "2025-12-22T05:43:55.997184",
        "meta_mean_motion": 15.1713435,
        "meta_eccentricity": 0.00024958,
        "meta_inclination": 97.4388,
        "meta_ra_of_asc_node": 67.8191,
        "meta_arg_of_pericenter": 285.8092,
        "meta_mean_anomaly": 74.2866,
        "meta_ephemeris_type": 0,
        "meta_classification_type": "U",
        "meta_norad_cat_id": 66721,
        "meta_element_set_no": 999,
        "meta_rev_at_epoch": 356,
        "meta_bstar": 0.00052943643,
        "meta_mean_motion_dot": 0.00010443,
        "meta_mean_motion_ddot": 0,
        "tle_line1": "1 66721U 25276BH  25356.23884256  .00010443  00000+0  52944-3 0  9991",
        "tle_line2": "2 66721  97.4388  67.8191 0002495 285.8092  74.2866 15.17134350  3566"
      },
      "geometry": {
        "type": "Point",
        "coordinates": [
          64.87103462741241,
          24.449844554662338
        ]
      }
    },
    {
      "type": "Feature",
      "properties": {
        "norad_id": 66722,
        "name": "FLOCK 4H-19",
        "group": "last-30-days",
        "lat": 62.83976125100105,
        "lon": -96.92923554284776,
        "alt_km": 503.5509594434616,
        "timestamp": "2025-12-22T16:55:16.166673+00:00",
        "meta_object_name": "FLOCK 4H-19",
        "meta_object_id": "2025-276BJ",
        "meta_epoch": "2025-12-22T05:20:19.593600",
        "meta_mean_motion": 15.1822507,
        "meta_eccentricity": 0.00028246,
        "meta_inclination": 97.4395,
        "meta_ra_of_asc_node": 67.841,
        "meta_arg_of_pericenter": 156.5833,
        "meta_mean_anomaly": 203.553,
        "meta_ephemeris_type": 0,
        "meta_classification_type": "U",
        "meta_norad_cat_id": 66722,
        "meta_element_set_no": 999,
        "meta_rev_at_epoch": 285,
        "meta_bstar": 0.00068185057,
        "meta_mean_motion_dot": 0.00013903,
        "meta_mean_motion_ddot": 0,
        "tle_line1": "1 66722U 25276BJ  25356.22244900  .00013903  00000+0  68185-3 0  9995",
        "tle_line2": "2 66722  97.4395  67.8410 0002824 156.5833 203.5530 15.18225070  2859"
      },
      "geometry": {
        "type": "Point",
        "coordinates": [
          -96.92923554284776,
          62.83976125100105
        ]
      }
    },
    {
      "type": "Feature",
      "properties": {
        "norad_id": 66723,
        "name": "FLOCK 4H-20",
        "group": "last-30-days",
        "lat": 59.62377087977703,
        "lon": -98.78362227009823,
        "alt_km": 504.06322358335,
        "timestamp": "2025-12-22T16:55:16.166683+00:00",
        "meta_object_name": "FLOCK 4H-20",
        "meta_object_id": "2025-276BK",
        "meta_epoch": "2025-12-22T02:09:39.891456",
        "meta_mean_motion": 15.18286405,
        "meta_eccentricity": 0.00027791,
        "meta_inclination": 97.4422,
        "meta_ra_of_asc_node": 67.7252,
        "meta_arg_of_pericenter": 174.0042,
        "meta_mean_anomaly": 186.1225,
        "meta_ephemeris_type": 0,
        "meta_classification_type": "U",
        "meta_norad_cat_id": 66723,
        "meta_element_set_no": 999,
        "meta_rev_at_epoch": 279,
        "meta_bstar": 0.00059091717,
        "meta_mean_motion_dot": 0.00012058,
        "meta_mean_motion_ddot": 0,
        "tle_line1": "1 66723U 25276BK  25356.09004504  .00012058  00000+0  59092-3 0  9992",
        "tle_line2": "2 66723  97.4422  67.7252 0002779 174.0042 186.1225 15.18286405  2799"
      },
      "geometry": {
        "type": "Point",
        "coordinates": [
          -98.78362227009823,
          59.62377087977703
        ]
      }
    },
    {
      "type": "Feature",
      "properties": {
        "norad_id": 66724,
        "name": "FLOCK 4H-21",
        "group": "last-30-days",
        "lat": 56.78076436928057,
        "lon": -100.1726373111861,
        "alt_km": 504.23705098219216,
        "timestamp": "2025-12-22T16:55:16.166696+00:00",
        "meta_object_name": "FLOCK 4H-21",
        "meta_object_id": "2025-276BL",
        "meta_epoch": "2025-12-22T02:08:55.741920",
        "meta_mean_motion": 15.18345613,
        "meta_eccentricity": 0.00024381,
        "meta_inclination": 97.439,
        "meta_ra_of_asc_node": 67.7129,
        "meta_arg_of_pericenter": 171.3161,
        "meta_mean_anomaly": 188.8116,
        "meta_ephemeris_type": 0,
        "meta_classification_type": "U",
        "meta_norad_cat_id": 66724,
        "meta_element_set_no": 999,
        "meta_rev_at_epoch": 279,
        "meta_bstar": 0.00062332978,
        "meta_mean_motion_dot": 0.00012746,
        "meta_mean_motion_ddot": 0,
        "tle_line1": "1 66724U 25276BL  25356.08953405  .00012746  00000+0  62333-3 0  9991",
        "tle_line2": "2 66724  97.4390  67.7129 0002438 171.3161 188.8116 15.18345613  2796"
      },
      "geometry": {
        "type": "Point",
        "coordinates": [
          -100.1726373111861,
          56.78076436928057
        ]
      }
    }
  ]
}